{
    "links": {
        "self": "http://www.neowsapp.com/rest/v1/neo/3826761?api_key=iIulBulltgU6a56xZRHN4H3l9WmuAYTsLGpBGhQ2"
    },
    "id": "3826761",
    "neo_reference_id": "3826761",
    "name": "(2018 PN20)",
    "designation": "2018 PN20",
    "nasa_jpl_url": "http://ssd.jpl.nasa.gov/sbdb.cgi?sstr=3826761",
    "absolute_magnitude_h": 25.1,
    "estimated_diameter": {
        "kilometers": {
            "estimated_diameter_min": 0.0253837029,
            "estimated_diameter_max": 0.0567596853
        },
        "meters": {
            "estimated_diameter_min": 25.3837029364,
            "estimated_diameter_max": 56.7596852866
        },
        "miles": {
            "estimated_diameter_min": 0.0157726969,
            "estimated_diameter_max": 0.0352688224
        },
        "feet": {
            "estimated_diameter_min": 83.279867942,
            "estimated_diameter_max": 186.2194458756
        }
    },
    "is_potentially_hazardous_asteroid": false,
    "close_approach_data": [
        {
            "close_approach_date": "2018-08-15",
            "close_approach_date_full": "2018-Aug-15 05:30",
            "epoch_date_close_approach": 1534311000000,
            "relative_velocity": {
                "kilometers_per_second": "11.4083156496",
                "kilometers_per_hour": "41069.9363386993",
                "miles_per_hour": "25519.2612766768"
            },
            "miss_distance": {
                "astronomical": "0.0391938201",
                "lunar": "15.2463960189",
                "kilometers": "5863312.004123187",
                "miles": "3643293.1376145006"
            },
            "orbiting_body": "Earth"
        }
    ],
    "orbital_data": {
        "orbit_id": "2",
        "orbit_determination_date": "2018-08-17 07:06:10",
        "first_observation_date": "2018-08-12",
        "last_observation_date": "2018-08-13",
        "data_arc_in_days": 1,
        "observations_used": 18,
        "orbit_uncertainty": "8",
        "minimum_orbit_intersection": ".0388223",
        "jupiter_tisserand_invariant": "4.078",
        "epoch_osculation": "2458343.5",
        "eccentricity": ".377526657673093",
        "semi_major_axis": "1.68936774934783",
        "inclination": "18.9167678691757",
        "ascending_node_longitude": "142.6884459246234",
        "orbital_period": "802.0191266145509",
        "perihelion_distance": "1.051586389355828",
        "perihelion_argument": "180.4363445073913",
        "aphelion_distance": "2.327149109339831",
        "perihelion_time": "2458346.396838407321",
        "mean_anomaly": "358.6997045431602",
        "mean_motion": ".4488671006134438",
        "equinox": "J2000",
        "orbit_class": {
            "orbit_class_type": "AMO",
            "orbit_class_description": "Near-Earth asteroid orbits similar to that of 1221 Amor",
            "orbit_class_range": "1.017 AU < q (perihelion) < 1.3 AU"
        }
    },
    "is_sentry_object": false
}